{"type":"FeatureCollection","features":[{"type":"Feature","properties":{"id":"zagros-west","name":"زاگرس غربی","status":"owned"},"geometry":{"type":"Polygon","coordinates":[[[170,300],[185,205],[285,145],[360,190],[335,300],[250,350],[170,300]]]}},{"type":"Feature","properties":{"id":"godin","name":"گودین","status":"owned"},"geometry":{"type":"Polygon","coordinates":[[[285,145],[420,125],[455,225],[390,310],[335,300],[360,190],[285,145]]]}},{"type":"Feature","properties":{"id":"ecbatana","name":"هگمتانه","status":"owned"},"geometry":{"type":"Polygon","coordinates":[[[420,125],[555,130],[575,245],[455,225],[420,125]]]}},{"type":"Feature","properties":{"id":"nushijan","name":"نوشیجان","status":"owned"},"geometry":{"type":"Polygon","coordinates":[[[390,310],[455,225],[575,245],[540,350],[450,390],[390,310]]]}},{"type":"Feature","properties":{"id":"urmia","name":"حوضهٔ ارومیه","status":"influence"},"geometry":{"type":"Polygon","coordinates":[[[555,130],[690,145],[700,265],[575,245],[555,130]]]}},{"type":"Feature","properties":{"id":"parsa","name":"پارس","status":"subject"},"geometry":{"type":"Polygon","coordinates":[[[450,390],[540,350],[700,385],[650,515],[535,555],[430,500],[450,390]]]}},{"type":"Feature","properties":{"id":"assyria","name":"آشور","status":"enemy"},"geometry":{"type":"Polygon","coordinates":[[[690,145],[820,190],[870,285],[700,265],[690,145]]]}},{"type":"Feature","properties":{"id":"babylon","name":"بابل نو","status":"enemy"},"geometry":{"type":"Polygon","coordinates":[[[700,265],[870,285],[840,420],[700,385],[700,265]]]}},{"type":"Feature","properties":{"id":"lydia","name":"لیدی","status":"enemy"},"geometry":{"type":"Polygon","coordinates":[[[170,300],[80,230],[125,120],[285,145],[190,210],[170,300]]]}},{"type":"Feature","properties":{"id":"urartu","name":"اورارتو","status":"enemy"},"geometry":{"type":"Polygon","coordinates":[[[690,145],[760,70],[875,115],[820,190],[690,145]]]}}]}